FLOCK 4G-26             
1 62633U 25009AA  26068.80489479  .00011283  00000+0  42469-3 0  9999
2 62633  97.4054 151.3913 0001988 299.1273  60.9767 15.27281631 63733
STARLINK-32745          
1 62755U 25014W   26068.28525276  .00028520  00000+0  10420-2 0  9991
2 62755  43.0012 156.8377 0001373 283.0412  77.0286 15.27575633 63191
