[{"OBJECT_NAME":"FLOCK 4G-26","OBJECT_ID":"2025-009AA","EPOCH":"2026-03-09T19:19:02.910720","MEAN_MOTION":15.27281631,"ECCENTRICITY":0.0001988,"INCLINATION":97.4054,"RA_OF_ASC_NODE":151.3913,"ARG_OF_PERICENTER":299.1273,"MEAN_ANOMALY":60.9767,"EPHEMERIS_TYPE":0,"CLASSIFICATION_TYPE":"U","NORAD_CAT_ID":62633,"ELEMENT_SET_NO":999,"REV_AT_EPOCH":6373,"BSTAR":0.00042468806,"MEAN_MOTION_DOT":0.00011283,"MEAN_MOTION_DDOT":0},{"OBJECT_NAME":"STARLINK-32745","OBJECT_ID":"2025-014W","EPOCH":"2026-03-09T06:50:45.838464","MEAN_MOTION":15.27575633,"ECCENTRICITY":0.00013738,"INCLINATION":43.0012,"RA_OF_ASC_NODE":156.8377,"ARG_OF_PERICENTER":283.0412,"MEAN_ANOMALY":77.0286,"EPHEMERIS_TYPE":0,"CLASSIFICATION_TYPE":"U","NORAD_CAT_ID":62755,"ELEMENT_SET_NO":999,"REV_AT_EPOCH":6319,"BSTAR":0.0010420338,"MEAN_MOTION_DOT":0.0002852,"MEAN_MOTION_DDOT":0}]
